#aV2008  7 16  0  0   .00000000      96 DD+AD WGS84 FIT  NGA
## 1488 259200.00000000   900.00000000 54663  .0000000000000
+   31     2  3  4  5  6  7  8  9 10 11 12 13 14 15 16 17 18
+         19 20 21 22 23 24 25 26 27 28 29 30 31 32  0  0  0
+          0  0  0  0  0  0  0  0  0  0  0  0  0  0  0  0  0
+          0  0  0  0  0  0  0  0  0  0  0  0  0  0  0  0  0
+          0  0  0  0  0  0  0  0  0  0  0  0  0  0  0  0  0
++         0  0  0  0  0  0  0  0  0  0  0  0  0  0  0  0  0
++         0  0  0  0  0  0  0  0  0  0  0  0  0  0  0  0  0
++         0  0  0  0  0  0  0  0  0  0  0  0  0  0  0  0  0
++         0  0  0  0  0  0  0  0  0  0  0  0  0  0  0  0  0
++         0  0  0  0  0  0  0  0  0  0  0  0  0  0  0  0  0
%c cc cc ccc ccc cccc cccc cccc cccc ccccc ccccc ccccc ccccc
%c cc cc ccc ccc cccc cccc cccc cccc ccccc ccccc ccccc ccccc
%f  0.0000000  0.000000000  0.00000000000  0.000000000000000
%f  0.0000000  0.000000000  0.00000000000  0.000000000000000
%i    0    0    0    0      0      0      0      0         0
%i    0    0    0    0      0      0      0      0         0
/*      NGA, ST. LOUIS,MO.                                  
/*   EPHEMERIS COMPUTED FROM  3 DAYS OF DATA                
/* CCCCCCCCCCCCCCCCCCCCCCCCCCCCCCCCCCCCCCCCCCCCCCCCCCCCCCCCC
/* CCCCCCCCCCCCCCCCCCCCCCCCCCCCCCCCCCCCCCCCCCCCCCCCCCCCCCCCC
*  2008  7 16 11 45   .00000000                                                 
P  2  18230.758437  -4059.964702 -18894.151959    201.577046                    
V  2 -10455.854406  21533.572561 -15191.433656      -.024753                    
P  3 -18713.465131  -2189.871721  18585.501006    256.367490                    
V  3 -12584.175084 -20694.223758 -14543.306310       .052735                    
P  4  14001.812977   7103.614664 -21530.221825   -116.862529                    
V  4 -14116.778940  23212.629455  -1164.618501      -.098311                    
P  5  11150.232997 -14857.426107 -19210.494967   -351.166702                    
V  5  23962.131497   -338.204431  14520.238851       .231395                    
P  6 -19248.914289  -7193.368195  17014.316579    161.265964                    
V  6  -9329.680705 -19305.053524 -18949.703458       .035408                    
P  7  -5130.964114  23574.942294  10984.183764     -3.592356                    
V  7  -9269.062955  10797.338400 -27506.574627       .055337                    
P  8   4609.784131  16787.878996  19821.913148   -161.987789                    
V  8 -15133.787979  20488.708783 -14239.428613      -.015564                    
P  9  14364.021462 -21936.514903   3050.618755      5.571073                    
V  9     65.990059   5363.835927  31787.668590       .017669                    
P 10  26579.669260   -838.708110   2648.679827     -2.929032                    
V 10   3402.691140   2585.523464 -31364.069659      -.004007                    
P 11 -10901.060188  23842.505979   2793.484220     23.273633                    
V 11  -3674.951484  -5355.612026  30041.424000      -.006032                    
P 12  16344.011551 -11694.541853 -17228.828617   -356.909791                    
V 12  22042.980176   2066.511586  19509.191887       .007763                    
P 13   4577.102683  24112.581743 -10287.580873    264.014506                    
V 13  -7058.858840 -10824.239784 -28837.962067       .015169                    
P 14 -15392.443420 -20802.696377  -6131.760615   -243.532599                    
V 14  -2069.802555  -7799.532828  31039.388517       .044493                    
P 15  13102.451246  -7899.672388  21731.442651   -143.696093                    
V 15  13800.727571  23852.181142    360.043645      -.063446                    
P 16 -26421.283624  -2581.053133  -2527.185280    116.744259                    
V 16   3345.809248  -2351.810453 -31529.440946      -.017197                    
P 17  16156.042056  20155.981945  -6499.135111     38.638118                    
V 17   1661.536839   8515.376810  30172.113051       .001052                    
P 18  -4572.773073 -15542.416778  21286.402608   -155.797731                    
V 18  26574.088014    831.073155   6004.982946       .043060                    
P 19 -13121.436403   8048.225661  21720.485947     33.594609                    
V 19 -11953.247485 -24660.487442   2117.434698       .004949                    
P 20 -14724.044941  13013.466346 -17964.345661    109.803520                    
V 20 -22651.511982  -1676.087734  17500.258807      -.008595                    
P 21     93.370097 -21490.158559  15399.107230     57.838563                    
V 21  12797.855117 -15015.304411 -21926.090613      -.013022                    
P 22 -18239.265714 -12051.890499  15283.238126    211.495960                    
V 22  19241.146739  -1218.034750  22170.096928      -.001939                    
P 23  -4425.472068  18314.232447 -18681.776911    364.591410                    
V 23 -12741.224954 -19971.376495 -16870.571936       .018257                    
P 24  12431.419353 -23379.099566   3672.120125    109.865078                    
V 24   4783.378507  -2135.854995 -30933.775860       .028688                    
P 25  -8459.459772  24960.221303   4356.120305   -191.657457                    
V 25  -4363.507029   3531.792647 -31106.589653      -.117269                    
P 26  14780.089625  -1860.400581  21558.326093    293.380669                    
V 26  12589.527308  25464.319067  -5778.105691       .068005                    
P 27  -1349.690000  23054.492361  13675.600177    203.174279                    
V 27  -9151.752265  13608.036299 -25221.513544       .027483                    
P 28  17088.307960  12319.293560  16763.473269    -21.083721                    
V 28 -20456.903663    619.098454  20557.647832      -.003566                    
P 29  -2337.486701 -23195.080418 -12637.148424    -41.498533                    
V 29   9706.163358  13214.955515 -25777.310125       .005092                    
P 30   1745.746736 -15622.326971 -21751.562179     86.215496                    
V 30  26846.387855   -449.855642   2616.084673       .019680                    
P 31 -14266.994721  -5082.817063 -21626.874292    -24.835054                    
V 31  13969.298417 -24159.921301  -3398.514816      -.001050                    
P 32 -21617.242370   6990.771152 -13181.013890    307.375747                    
V 32 -17201.108451  -3974.191389  25448.983441       .028792                    
EOF
